CENTISPACE-2 S9         
1 68358U 26060J   26198.29585427  .00000110  00000+0  65960-4 0  9993
2 68358  54.9726 276.9320 0006320 253.6379 106.3917 14.54972997 17158
CENTISPACE-2 S10        
1 68359U 26060K   26197.72259676  .00000129  00000+0  70181-4 0  9996
2 68359  54.9763 278.9418 0009049 280.5749  79.4222 14.55228683 17078
RASSVET-3 1             
1 68360U 26061A   26198.65007161  .00001184  00000+0  56676-4 0  9997
2 68360  82.2918 340.9488 0000782 154.8614 205.2657 15.18042427 18197
RASSVET-3 2             
1 68361U 26061B   26197.97730759 -.00207628  00000+0 -62083-2 0  9998
2 68361  82.2937 340.3411 0006552  11.7547 348.3848 15.35420027 18170
RASSVET-3 3             
1 68362U 26061C   26198.37340998  .00001171  00000+0  56057-4 0  9995
2 68362  82.2965 343.3402 0003401 125.1087 235.0465 15.18043148 18021
RASSVET-3 5             
1 68364U 26061E   26197.91848528  .00001124  00000+0  53769-4 0  9993
2 68364  82.2971 344.6371 0001239 152.1388 207.9912 15.18031660 17907
RASSVET-3 6             
1 68365U 26061F   26198.37559782  .00001157  00000+0  55335-4 0  9993
2 68365  82.2951 343.8234 0002726 109.1060 251.0469 15.18037109 17996
RASSVET-3 7             
1 68366U 26061G   26197.85040843  .00001097  00000+0  52423-4 0  9997
2 68366  82.2947 343.7129 0003023  80.4422 279.7153 15.18023091 17956
RASSVET-3 8             
1 68367U 26061H   26198.59083206  .00002180  00000+0  10024-3 0  9994
2 68367  82.2964 340.4168 0005392 264.5932  95.4687 15.19852336 18224
RASSVET-3 9             
1 68368U 26061J   26198.64789566  .00001193  00000+0  57118-4 0  9992
2 68368  82.2935 341.1344 0002943 188.0133 172.1054 15.18044221 18180
RASSVET-3 10            
1 68369U 26061K   26198.34935978  .00025817  00000+0  25013-3 0  9997
2 68369  82.2857 337.4223 0000765  21.7209 338.4082 15.66224812 18384
RASSVET-3 11            
1 68370U 26061L   26198.38746419  .00026450  00000+0  24667-3 0  9991
2 68370  82.2940 338.6628 0007663  63.2566 296.9477 15.67134769 18313
RASSVET-3 12            
1 68371U 26061M   26198.64572535  .00001092  00000+0  52181-4 0  9995
2 68371  82.2955 343.5554 0000310  68.6281 291.4985 15.18033767 18033
RASSVET-3 13            
1 68372U 26061N   26197.86460773 -.00072126  00000+0 -33006-2 0  9990
2 68372  82.2973 343.9350 0009884 335.8722  24.2048 15.20857014 17949
RASSVET-3 14            
1 68373U 26061P   26198.48577388  .00022438  00000+0  17401-3 0  9992
2 68373  82.2946 338.6533 0008877  16.8682 343.2873 15.71605395 18328
RASSVET-3 15            
1 68374U 26061Q   26198.34296854  .00002304  00000+0  93735-4 0  9999
2 68374  82.2964 340.4045 0005025  97.9258 262.2549 15.24037375 18201
RASSVET-3 16            
1 68375U 26061R   26198.38847066  .00001361  00000+0  65470-4 0  9998
2 68375  82.2937 341.4139 0000704 168.0427 192.0823 15.18007916 18143
SUPERVIEW NEO-2 05      
1 68377U 26062A   26188.56188348  .00001590  00000+0  77616-4 0  9990
2 68377  97.4398 195.5775 0001669  84.9162 275.2263 15.19717678 15740
SUPERVIEW NEO-2 06      
1 68378U 26062B   26188.56188234  .00001807  00000+0  87797-4 0  9997
2 68378  97.4400 195.5825 0001427 108.8881 251.2509 15.19718910 15744
STARLINK-36296          
1 68380U 26063A   26198.57280510  .00010265  00000+0  31978-3 0  9990
2 68380  97.2864 343.3311 0001591  89.1476 270.9950 15.33453094 17997
STARLINK-37111          
1 68381U 26063B   26197.96962010  .00008365  00000+0  26118-3 0  9993
2 68381  97.2862 339.7239 0000648 212.8667 147.2535 15.33440900 17709
STARLINK-36946          
1 68382U 26063C   26198.64936320  .00008332  00000+0  26014-3 0  9994
2 68382  97.2880 340.4839 0000647 104.1424 255.9891 15.33444897 17811
STARLINK-37121          
1 68383U 26063D   26197.97507963  .00013848  00000+0  43035-3 0  9997
2 68383  97.2863 339.7163 0000750 105.4706 254.6620 15.33454994 17709
STARLINK-37137          
1 68384U 26063E   26198.38562314  .00011385  00000+0  35442-3 0  9992
2 68384  97.2863 340.2274 0000420 140.9573 219.1701 15.33448290 17775
STARLINK-37128          
1 68385U 26063F   26198.34484266  .00011813  00000+0  36733-3 0  9998
2 68385  97.2866 340.1304 0001118  74.3308 285.8058 15.33474491 17769
STARLINK-37198          
1 68386U 26063G   26198.37202985  .00007862  00000+0  24560-3 0  9992
2 68386  97.2863 340.2454 0000298  45.3821 314.7446 15.33443489 17777
STARLINK-37223          
1 68387U 26063H   26198.66839854  .00009983  00000+0  31118-3 0  9999
2 68387  97.2882 340.4547 0000766  75.8522 284.2806 15.33441651 17815
STARLINK-37203          
1 68388U 26063J   26198.32580806  .00014317  00000+0  44491-3 0  9998
2 68388  97.2866 340.1573 0001989  93.9198 266.2272 15.33448029 17769
STARLINK-37197          
1 68389U 26063K   26197.92339202 -.00002749  00000+0 -82882-4 0  9991
2 68389  97.2866 339.7837 0000508 169.0522 191.0732 15.33432896 17704
STARLINK-37193          
1 68390U 26063L   26198.58912088  .00004710  00000+0  14815-3 0  9993
2 68390  97.2870 343.3101 0001289  92.8148 267.3242 15.33441925 17997
