OBJECT_NAME,OBJECT_ID,EPOCH,MEAN_MOTION,ECCENTRICITY,INCLINATION,RA_OF_ASC_NODE,ARG_OF_PERICENTER,MEAN_ANOMALY,EPHEMERIS_TYPE,CLASSIFICATION_TYPE,NORAD_CAT_ID,ELEMENT_SET_NO,REV_AT_EPOCH,BSTAR,MEAN_MOTION_DOT,MEAN_MOTION_DDOT
CENTISPACE-2 S9,2026-060J,2026-07-17T07:06:01.808928,14.54972997,.00063206,54.9726,276.9320,253.6379,106.3917,0,U,68358,999,1715,.65959846E-4,.11E-5,0
CENTISPACE-2 S10,2026-060K,2026-07-16T17:20:32.360064,14.55228683,.00090492,54.9763,278.9418,280.5749,79.4222,0,U,68359,999,1707,.7018144E-4,.129E-5,0
RASSVET-3 1,2026-061A,2026-07-17T15:36:06.187104,15.18042427,.00007828,82.2918,340.9488,154.8614,205.2657,0,U,68360,999,1819,.56675733E-4,.1184E-4,0
RASSVET-3 2,2026-061B,2026-07-16T23:27:19.375776,15.35420027,.00065526,82.2937,340.3411,11.7547,348.3848,0,U,68361,999,1817,-.62083388E-2,-.207628E-2,0
RASSVET-3 3,2026-061C,2026-07-17T08:57:42.622272,15.18043148,.00034012,82.2965,343.3402,125.1087,235.0465,0,U,68362,999,1802,.56057052E-4,.1171E-4,0
RASSVET-3 5,2026-061E,2026-07-16T22:02:37.128192,15.18031660,.00012393,82.2971,344.6371,152.1388,207.9912,0,U,68364,999,1790,.53768975E-4,.1124E-4,0
RASSVET-3 6,2026-061F,2026-07-17T09:00:51.651648,15.18037109,.00027269,82.2951,343.8234,109.1060,251.0469,0,U,68365,999,1799,.55335428E-4,.1157E-4,0
RASSVET-3 7,2026-061G,2026-07-16T20:24:35.288352,15.18023091,.00030235,82.2947,343.7129,80.4422,279.7153,0,U,68366,999,1795,.52422761E-4,.1097E-4,0
RASSVET-3 8,2026-061H,2026-07-17T14:10:47.889984,15.19852336,.00053927,82.2964,340.4168,264.5932,95.4687,0,U,68367,999,1822,.1002388E-3,.218E-4,0
RASSVET-3 9,2026-061J,2026-07-17T15:32:58.185024,15.18044221,.00029438,82.2935,341.1344,188.0133,172.1054,0,U,68368,999,1818,.57118234E-4,.1193E-4,0
RASSVET-3 10,2026-061K,2026-07-17T08:23:04.684992,15.66224812,.00007659,82.2857,337.4223,21.7209,338.4082,0,U,68369,999,1838,.25012925E-3,.25817E-3,0
RASSVET-3 11,2026-061L,2026-07-17T09:17:56.906016,15.67134769,.0007663,82.2940,338.6628,63.2566,296.9477,0,U,68370,999,1831,.24666592E-3,.2645E-3,0
RASSVET-3 12,2026-061M,2026-07-17T15:29:50.670240,15.18033767,.00003103,82.2955,343.5554,68.6281,291.4985,0,U,68371,999,1803,.52181057E-4,.1092E-4,0
RASSVET-3 13,2026-061N,2026-07-16T20:45:02.107872,15.20857014,.00098849,82.2973,343.9350,335.8722,24.2048,0,U,68372,999,1794,-.33006122E-2,-.72126E-3,0
RASSVET-3 14,2026-061P,2026-07-17T11:39:30.863232,15.71605395,.00088775,82.2946,338.6533,16.8682,343.2873,0,U,68373,999,1832,.17401416E-3,.22438E-3,0
RASSVET-3 15,2026-061Q,2026-07-17T08:13:52.481856,15.24037375,.00050255,82.2964,340.4045,97.9258,262.2549,0,U,68374,999,1820,.93734947E-4,.2304E-4,0
RASSVET-3 16,2026-061R,2026-07-17T09:19:23.865024,15.18007916,.00007045,82.2937,341.4139,168.0427,192.0823,0,U,68375,999,1814,.65469826E-4,.1361E-4,0
SUPERVIEW NEO-2 05,2026-062A,2026-07-07T13:29:06.732672,15.19717678,.0001669,97.4398,195.5775,84.9162,275.2263,0,U,68377,999,1574,.77616E-4,.159E-4,0
SUPERVIEW NEO-2 06,2026-062B,2026-07-07T13:29:06.634176,15.19718910,.0001427,97.4400,195.5825,108.8881,251.2509,0,U,68378,999,1574,.87797E-4,.1807E-4,0
STARLINK-36296,2026-063A,2026-07-17T13:44:50.360640,15.33453094,.00015919,97.2864,343.3311,89.1476,270.9950,0,U,68380,999,1799,.31977862E-3,.10265E-3,0
STARLINK-37111,2026-063B,2026-07-16T23:16:15.176640,15.33440900,.0000648,97.2862,339.7239,212.8667,147.2535,0,U,68381,999,1770,.26117686E-3,.8365E-4,0
STARLINK-36946,2026-063C,2026-07-17T15:35:04.980480,15.33444897,.00006479,97.2880,340.4839,104.1424,255.9891,0,U,68382,999,1781,.26013662E-3,.8332E-4,0
STARLINK-37121,2026-063D,2026-07-16T23:24:06.880032,15.33454994,.00007502,97.2863,339.7163,105.4706,254.6620,0,U,68383,999,1770,.43034539E-3,.13848E-3,0
STARLINK-37137,2026-063E,2026-07-17T09:15:17.839296,15.33448290,.00004203,97.2863,340.2274,140.9573,219.1701,0,U,68384,999,1777,.35442179E-3,.11385E-3,0
STARLINK-37128,2026-063F,2026-07-17T08:16:34.405824,15.33474491,.00011187,97.2866,340.1304,74.3308,285.8058,0,U,68385,999,1776,.36732591E-3,.11813E-3,0
STARLINK-37198,2026-063G,2026-07-17T08:55:43.379040,15.33443489,.00002981,97.2863,340.2454,45.3821,314.7446,0,U,68386,999,1777,.2455971E-3,.7862E-4,0
STARLINK-37223,2026-063H,2026-07-17T16:02:29.633856,15.33441651,.00007669,97.2882,340.4547,75.8522,284.2806,0,U,68387,999,1781,.3111751E-3,.9983E-4,0
STARLINK-37203,2026-063J,2026-07-17T07:49:09.816384,15.33448029,.00019898,97.2866,340.1573,93.9198,266.2272,0,U,68388,999,1776,.44490958E-3,.14317E-3,0
STARLINK-37197,2026-063K,2026-07-16T22:09:41.070528,15.33432896,.00005089,97.2866,339.7837,169.0522,191.0732,0,U,68389,999,1770,-.82881841E-4,-.2749E-4,0
STARLINK-37193,2026-063L,2026-07-17T14:08:20.044032,15.33441925,.00012894,97.2870,343.3101,92.8148,267.3242,0,U,68390,999,1799,.14815436E-3,.471E-4,0
